start=new Date('2022-03-05T00:00:00.000Z').valueOf();
sats=[{"FILE":"3344357","BSTAR":"0.00022255000000","APOAPSIS":"548.383","MEAN_ELEMENT_THEORY":"SGP4","REF_FRAME":"TEME","REV_AT_EPOCH":"8393","COUNTRY_CODE":"US","INCLINATION":"53.0545","MEAN_MOTION_DDOT":"0.0000000000000","SEMIMAJOR_AXIS":"6925.340","ARG_OF_PERICENTER":"53.4594","GP_ID":"197842904","MEAN_MOTION_DOT":"0.00003035","ELEMENT_SET_NO":"999","RCS_SIZE":"LARGE","MEAN_MOTION":"15.06402642","OBJECT_TYPE":"PAYLOAD","TLE_LINE1":"1 46365U 20062AS  22063.41571413  .00003035  00000-0  22255-3 0  9993","TIME_SYSTEM":"UTC","PERIOD":"95.592","CENTER_NAME":"EARTH","MEAN_ANOMALY":"306.6551","OBJECT_ID":"2020-062AS","OBJECT_NAME":"STARLINK-1550","ECCENTRICITY":"0.00017010","EPOCH":"2022-03-04T09:58:37.700832","LAUNCH_DATE":"2020-09-03","SITE":"AFETR","CLASSIFICATION_TYPE":"U","PERIAPSIS":"546.027","TLE_LINE2":"2 46365  53.0545  73.9718 0001701  53.4594 306.6551 15.06402642 83931","RA_OF_ASC_NODE":"73.9718","NORAD_CAT_ID":"46365","DECAY_DATE":null,"EPHEMERIS_TYPE":"0"},{"EPOCH":"2022-03-04T17:40:24.047616","LAUNCH_DATE":"2020-09-03","SITE":"AFETR","CLASSIFICATION_TYPE":"U","PERIAPSIS":"546.130","PERIOD":"95.592","OBJECT_NAME":"STARLINK-1651","MEAN_ANOMALY":"299.7260","CENTER_NAME":"EARTH","OBJECT_ID":"2020-062AT","ECCENTRICITY":"0.00015600","DECAY_DATE":null,"EPHEMERIS_TYPE":"0","TLE_LINE2":"2 46366  53.0547  72.5366 0001560  60.3884 299.7260 15.06400964 83989","RA_OF_ASC_NODE":"72.5366","NORAD_CAT_ID":"46366","COUNTRY_CODE":"US","INCLINATION":"53.0547","MEAN_MOTION_DDOT":"0.0000000000000","SEMIMAJOR_AXIS":"6925.346","ARG_OF_PERICENTER":"60.3884","FILE":"3344863","BSTAR":"0.00017722000000","APOAPSIS":"548.291","REF_FRAME":"TEME","MEAN_ELEMENT_THEORY":"SGP4","REV_AT_EPOCH":"8398","RCS_SIZE":"LARGE","MEAN_MOTION":"15.06400964","OBJECT_TYPE":"PAYLOAD","TLE_LINE1":"1 46366U 20062AT  22063.73638944  .00002359  00000-0  17722-3 0  9993","TIME_SYSTEM":"UTC","GP_ID":"197903685","MEAN_MOTION_DOT":"0.00002359","ELEMENT_SET_NO":"999"},{"RA_OF_ASC_NODE":"98.1401","TLE_LINE2":"2 46368  53.0531  98.1401 0001860  54.9742 305.1422 15.06401173 83629","NORAD_CAT_ID":"46368","DECAY_DATE":null,"EPHEMERIS_TYPE":"0","PERIOD":"95.592","ECCENTRICITY":"0.00018600","OBJECT_NAME":"STARLINK-1658","MEAN_ANOMALY":"305.1422","CENTER_NAME":"EARTH","OBJECT_ID":"2020-062AV","LAUNCH_DATE":"2020-09-03","EPOCH":"2022-03-04T14:28:39.408096","PERIAPSIS":"545.922","CLASSIFICATION_TYPE":"U","SITE":"AFETR","GP_ID":"197904193","ELEMENT_SET_NO":"999","MEAN_MOTION_DOT":"0.00000518","RCS_SIZE":"LARGE","TLE_LINE1":"1 46368U 20062AV  22063.60323389  .00000518  00000-0  53690-4 0  9995","TIME_SYSTEM":"UTC","MEAN_MOTION":"15.06401173","OBJECT_TYPE":"PAYLOAD","MEAN_ELEMENT_THEORY":"SGP4","APOAPSIS":"548.498","REF_FRAME":"TEME","BSTAR":"0.00005369000000","FILE":"3344863","REV_AT_EPOCH":"8362","SEMIMAJOR_AXIS":"6925.345","MEAN_MOTION_DDOT":"0.0000000000000","COUNTRY_CODE":"US","INCLINATION":"53.0531","ARG_OF_PERICENTER":"54.9742"},{"LAUNCH_DATE":"2020-09-03","EPOCH":"2022-03-04T08:48:58.235616","PERIAPSIS":"545.862","SITE":"AFETR","CLASSIFICATION_TYPE":"U","PERIOD":"95.592","OBJECT_ID":"2020-062AX","MEAN_ANOMALY":"303.3112","OBJECT_NAME":"STARLINK-1670","CENTER_NAME":"EARTH","ECCENTRICITY":"0.00019700","DECAY_DATE":null,"EPHEMERIS_TYPE":"0","RA_OF_ASC_NODE":"99.2109","TLE_LINE2":"2 46370  53.0552  99.2109 0001970  56.8065 303.3112 15.06395894 83586","NORAD_CAT_ID":"46370","SEMIMAJOR_AXIS":"6925.361","INCLINATION":"53.0552","COUNTRY_CODE":"US","MEAN_MOTION_DDOT":"0.0000000000000","ARG_OF_PERICENTER":"56.8065","BSTAR":"0.00006169300000","REF_FRAME":"TEME","APOAPSIS":"548.590","MEAN_ELEMENT_THEORY":"SGP4","FILE":"3344357","REV_AT_EPOCH":"8358","RCS_SIZE":"LARGE","TLE_LINE1":"1 46370U 20062AX  22063.36734069  .00000637  00000-0  61693-4 0  9996","TIME_SYSTEM":"UTC","MEAN_MOTION":"15.06395894","OBJECT_TYPE":"PAYLOAD","GP_ID":"197842390","ELEMENT_SET_NO":"999","MEAN_MOTION_DOT":"0.00000637"},{"ARG_OF_PERICENTER":"56.2173","SEMIMAJOR_AXIS":"6925.335","INCLINATION":"53.0522","COUNTRY_CODE":"US","MEAN_MOTION_DDOT":"0.0000000000000","REV_AT_EPOCH":"8360","BSTAR":"0.00023312000000","APOAPSIS":"548.492","MEAN_ELEMENT_THEORY":"SGP4","REF_FRAME":"TEME","FILE":"3344357","TIME_SYSTEM":"UTC","TLE_LINE1":"1 46371U 20062AY  22063.49266556  .00003193  00000-0  23312-3 0  9997","OBJECT_TYPE":"PAYLOAD","MEAN_MOTION":"15.06404288","RCS_SIZE":"LARGE","ELEMENT_SET_NO":"999","MEAN_MOTION_DOT":"0.00003193","GP_ID":"197842405","PERIAPSIS":"545.909","SITE":"AFETR","CLASSIFICATION_TYPE":"U","LAUNCH_DATE":"2020-09-03","EPOCH":"2022-03-04T11:49:26.304384","CENTER_NAME":"EARTH","MEAN_ANOMALY":"303.8994","OBJECT_ID":"2020-062AY","OBJECT_NAME":"STARLINK-1688","ECCENTRICITY":"0.00018650","PERIOD":"95.592","EPHEMERIS_TYPE":"0","DECAY_DATE":null,"NORAD_CAT_ID":"46371","RA_OF_ASC_NODE":"98.6257","TLE_LINE2":"2 46371  53.0522  98.6257 0001865  56.2173 303.8994 15.06404288 83602"},{"EPHEMERIS_TYPE":"0","DECAY_DATE":null,"NORAD_CAT_ID":"46372","RA_OF_ASC_NODE":"118.8811","TLE_LINE2":"2 46372  53.0538 118.8811 0001561  58.5717 301.5424 15.06391214 83318","PERIAPSIS":"546.159","SITE":"AFETR","CLASSIFICATION_TYPE":"U","LAUNCH_DATE":"2020-09-03","EPOCH":"2022-03-04T10:27:09.900000","OBJECT_ID":"2020-062AZ","MEAN_ANOMALY":"301.5424","OBJECT_NAME":"STARLINK-1689","CENTER_NAME":"EARTH","ECCENTRICITY":"0.00015610","PERIOD":"95.593","TLE_LINE1":"1 46372U 20062AZ  22063.43553125 -.00000400  00000-0 -79727-5 0  9996","TIME_SYSTEM":"UTC","MEAN_MOTION":"15.06391214","OBJECT_TYPE":"PAYLOAD","RCS_SIZE":"LARGE","ELEMENT_SET_NO":"999","MEAN_MOTION_DOT":"-0.00000400","GP_ID":"197842655","ARG_OF_PERICENTER":"58.5717","SEMIMAJOR_AXIS":"6925.375","COUNTRY_CODE":"US","INCLINATION":"53.0538","MEAN_MOTION_DDOT":"0.0000000000000","REV_AT_EPOCH":"8331","BSTAR":"-0.00000797270000","APOAPSIS":"548.322","REF_FRAME":"TEME","MEAN_ELEMENT_THEORY":"SGP4","FILE":"3344357"},{"PERIOD":"95.591","ECCENTRICITY":"0.00012900","OBJECT_NAME":"STARLINK-1711","MEAN_ANOMALY":"269.7546","OBJECT_ID":"2020-062BB","CENTER_NAME":"EARTH","EPOCH":"2022-03-04T15:33:41.978592","LAUNCH_DATE":"2020-09-03","CLASSIFICATION_TYPE":"U","SITE":"AFETR","PERIAPSIS":"546.258","TLE_LINE2":"2 46374  53.0550  47.9404 0001290  90.3591 269.7546 15.06420404 84323","RA_OF_ASC_NODE":"47.9404","NORAD_CAT_ID":"46374","DECAY_DATE":null,"EPHEMERIS_TYPE":"0","FILE":"3344863","REF_FRAME":"TEME","APOAPSIS":"548.044","MEAN_ELEMENT_THEORY":"SGP4","BSTAR":"0.00053123000000","REV_AT_EPOCH":"8432","MEAN_MOTION_DDOT":"0.0000000000000","COUNTRY_CODE":"US","INCLINATION":"53.0550","SEMIMAJOR_AXIS":"6925.286","ARG_OF_PERICENTER":"90.3591","GP_ID":"197903694","MEAN_MOTION_DOT":"0.00007644","ELEMENT_SET_NO":"999","RCS_SIZE":"LARGE","OBJECT_TYPE":"PAYLOAD","MEAN_MOTION":"15.06420404","TLE_LINE1":"1 46374U 20062BB  22063.64840253  .00007644  00000-0  53123-3 0  9997","TIME_SYSTEM":"UTC"},{"SEMIMAJOR_AXIS":"6925.341","MEAN_MOTION_DDOT":"0.0000000000000","INCLINATION":"53.0542","COUNTRY_CODE":"US","ARG_OF_PERICENTER":"50.2300","REF_FRAME":"TEME","APOAPSIS":"548.607","MEAN_ELEMENT_THEORY":"SGP4","BSTAR":"0.00018247000000","FILE":"3344357","REV_AT_EPOCH":"8392","RCS_SIZE":"LARGE","TIME_SYSTEM":"UTC","TLE_LINE1":"1 46375U 20062BC  22063.33093256  .00002437  00000-0  18247-3 0  9990","OBJECT_TYPE":"PAYLOAD","MEAN_MOTION":"15.06402330","GP_ID":"197842890","ELEMENT_SET_NO":"999","MEAN_MOTION_DOT":"0.00002437","LAUNCH_DATE":"2020-09-03","EPOCH":"2022-03-04T07:56:32.573184","PERIAPSIS":"545.805","CLASSIFICATION_TYPE":"U","SITE":"AFETR","PERIOD":"95.592","ECCENTRICITY":"0.00020230","OBJECT_NAME":"STARLINK-1724","MEAN_ANOMALY":"309.8867","OBJECT_ID":"2020-062BC","CENTER_NAME":"EARTH","DECAY_DATE":null,"EPHEMERIS_TYPE":"0","RA_OF_ASC_NODE":"74.3498","TLE_LINE2":"2 46375  53.0542  74.3498 0002023  50.2300 309.8867 15.06402330 83925","NORAD_CAT_ID":"46375"},{"GP_ID":"197842905","ELEMENT_SET_NO":"999","MEAN_MOTION_DOT":"0.00000922","RCS_SIZE":"LARGE","TLE_LINE1":"1 46376U 20062BD  22063.34569183  .00000922  00000-0  80780-4 0  9998","TIME_SYSTEM":"UTC","OBJECT_TYPE":"PAYLOAD","MEAN_MOTION":"15.06396640","BSTAR":"0.00008078000000","APOAPSIS":"548.428","MEAN_ELEMENT_THEORY":"SGP4","REF_FRAME":"TEME","FILE":"3344357","REV_AT_EPOCH":"8392","SEMIMAJOR_AXIS":"6925.359","COUNTRY_CODE":"US","INCLINATION":"53.0557","MEAN_MOTION_DDOT":"0.0000000000000","ARG_OF_PERICENTER":"58.2953","RA_OF_ASC_NODE":"74.2890","TLE_LINE2":"2 46376  53.0557  74.2890 0001739  58.2953 301.8206 15.06396640 83927","NORAD_CAT_ID":"46376","DECAY_DATE":null,"EPHEMERIS_TYPE":"0","PERIOD":"95.592","MEAN_ANOMALY":"301.8206","CENTER_NAME":"EARTH","OBJECT_NAME":"STARLINK-1742","OBJECT_ID":"2020-062BD","ECCENTRICITY":"0.00017390","LAUNCH_DATE":"2020-09-03","EPOCH":"2022-03-04T08:17:47.774112","PERIAPSIS":"546.020","SITE":"AFETR","CLASSIFICATION_TYPE":"U"},{"REV_AT_EPOCH":"8360","BSTAR":"0.00005809500000","REF_FRAME":"TEME","APOAPSIS":"548.361","MEAN_ELEMENT_THEORY":"SGP4","FILE":"3344357","ARG_OF_PERICENTER":"56.0059","SEMIMAJOR_AXIS":"6925.362","COUNTRY_CODE":"US","INCLINATION":"53.0552","MEAN_MOTION_DDOT":"0.0000000000000","ELEMENT_SET_NO":"999","MEAN_MOTION_DOT":"0.00000584","GP_ID":"197843155","TIME_SYSTEM":"UTC","TLE_LINE1":"1 46380U 20062BH  22063.51109160  .00000584  00000-0  58095-4 0  9995","OBJECT_TYPE":"PAYLOAD","MEAN_MOTION":"15.06395642","RCS_SIZE":"LARGE","MEAN_ANOMALY":"304.1085","OBJECT_NAME":"STARLINK-1758","OBJECT_ID":"2020-062BH","CENTER_NAME":"EARTH","ECCENTRICITY":"0.00016380","PERIOD":"95.592","PERIAPSIS":"546.093","SITE":"AFETR","CLASSIFICATION_TYPE":"U","LAUNCH_DATE":"2020-09-03","EPOCH":"2022-03-04T12:15:58.314240","NORAD_CAT_ID":"46380","RA_OF_ASC_NODE":"98.5469","TLE_LINE2":"2 46380  53.0552  98.5469 0001638  56.0059 304.1085 15.06395642 83606","EPHEMERIS_TYPE":"0","DECAY_DATE":null}];
